{
  "type": "FeatureCollection",
  "features": [
    {
      "type": "Feature",
      "properties": {
        "norad_id": 48859,
        "name": "GPS BIII-5  (PRN 11)",
        "group": "gps-ops",
        "lat": -38.56329320659824,
        "lon": -166.38905288680735,
        "alt_km": 20122.34406921681,
        "timestamp": "2025-12-10T20:49:52.812665+00:00",
        "meta_object_name": "GPS BIII-5  (PRN 11)",
        "meta_object_id": "2021-054A",
        "meta_epoch": "2025-12-08T04:14:32.423424",
        "meta_mean_motion": 2.00553627,
        "meta_eccentricity": 0.00246779,
        "meta_inclination": 55.2581,
        "meta_ra_of_asc_node": 340.1367,
        "meta_arg_of_pericenter": 233.3994,
        "meta_mean_anomaly": 212.8593,
        "meta_ephemeris_type": 0,
        "meta_classification_type": "U",
        "meta_norad_cat_id": 48859,
        "meta_element_set_no": 999,
        "meta_rev_at_epoch": 3292,
        "meta_bstar": 0,
        "meta_mean_motion_dot": -8.6e-07,
        "meta_mean_motion_ddot": 0,
        "tle_line1": "1 48859U 21054A   25342.17676416 -.00000086  00000+0  00000+0 0  9993",
        "tle_line2": "2 48859  55.2581 340.1367 0024677 233.3994 212.8593  2.00553627 32921"
      },
      "geometry": {
        "type": "Point",
        "coordinates": [
          -166.38905288680735,
          -38.56329320659824
        ]
      }
    },
    {
      "type": "Feature",
      "properties": {
        "norad_id": 55268,
        "name": "GPS BIII-6  (PRN 28)",
        "group": "gps-ops",
        "lat": -55.04516235787681,
        "lon": 68.88498989553673,
        "alt_km": 20188.080634676568,
        "timestamp": "2025-12-10T20:49:52.812677+00:00",
        "meta_object_name": "GPS BIII-6  (PRN 28)",
        "meta_object_id": "2023-009A",
        "meta_epoch": "2025-12-10T05:50:57.225696",
        "meta_mean_motion": 2.00555847,
        "meta_eccentricity": 0.00036975,
        "meta_inclination": 55.1051,
        "meta_ra_of_asc_node": 155.9432,
        "meta_arg_of_pericenter": 357.7706,
        "meta_mean_anomaly": 183.2285,
        "meta_ephemeris_type": 0,
        "meta_classification_type": "U",
        "meta_norad_cat_id": 55268,
        "meta_element_set_no": 999,
        "meta_rev_at_epoch": 2145,
        "meta_bstar": 0,
        "meta_mean_motion_dot": 7.5e-07,
        "meta_mean_motion_ddot": 0,
        "tle_line1": "1 55268U 23009A   25344.24371789  .00000075  00000+0  00000+0 0  9999",
        "tle_line2": "2 55268  55.1051 155.9432 0003697 357.7706 183.2285  2.00555847 21451"
      },
      "geometry": {
        "type": "Point",
        "coordinates": [
          68.88498989553673,
          -55.04516235787681
        ]
      }
    },
    {
      "type": "Feature",
      "properties": {
        "norad_id": 62339,
        "name": "GPS BIII-7  (PRN 01)",
        "group": "gps-ops",
        "lat": -8.932797746388074,
        "lon": -24.52854890545229,
        "alt_km": 20151.77914374169,
        "timestamp": "2025-12-10T20:49:52.812689+00:00",
        "meta_object_name": "GPS BIII-7  (PRN 01)",
        "meta_object_id": "2024-242A",
        "meta_epoch": "2025-12-07T21:14:38.700960",
        "meta_mean_motion": 2.00567469,
        "meta_eccentricity": 0.00119344,
        "meta_inclination": 54.9247,
        "meta_ra_of_asc_node": 341.9365,
        "meta_arg_of_pericenter": 343.8064,
        "meta_mean_anomaly": 11.4848,
        "meta_ephemeris_type": 0,
        "meta_classification_type": "U",
        "meta_norad_cat_id": 62339,
        "meta_element_set_no": 999,
        "meta_rev_at_epoch": 741,
        "meta_bstar": 0,
        "meta_mean_motion_dot": -8.7e-07,
        "meta_mean_motion_ddot": 0,
        "tle_line1": "1 62339U 24242A   25341.88517015 -.00000087  00000+0  00000+0 0  9991",
        "tle_line2": "2 62339  54.9247 341.9365 0011934 343.8064  11.4848  2.00567469  7410"
      },
      "geometry": {
        "type": "Point",
        "coordinates": [
          -24.52854890545229,
          -8.932797746388074
        ]
      }
    },
    {
      "type": "Feature",
      "properties": {
        "norad_id": 64202,
        "name": "GPS BIII-8  (PRN 21)",
        "group": "gps-ops",
        "lat": 1.1702588441423776,
        "lon": -142.08470521386232,
        "alt_km": 20191.66041712285,
        "timestamp": "2025-12-10T20:49:52.812701+00:00",
        "meta_object_name": "GPS BIII-8  (PRN 21)",
        "meta_object_id": "2025-116A",
        "meta_epoch": "2025-12-10T14:44:58.926624",
        "meta_mean_motion": 2.0055838,
        "meta_eccentricity": 0.0005302,
        "meta_inclination": 55.1043,
        "meta_ra_of_asc_node": 38.7264,
        "meta_arg_of_pericenter": 307.5969,
        "meta_mean_anomaly": 48.0567,
        "meta_ephemeris_type": 0,
        "meta_classification_type": "U",
        "meta_norad_cat_id": 64202,
        "meta_element_set_no": 999,
        "meta_rev_at_epoch": 408,
        "meta_bstar": 0,
        "meta_mean_motion_dot": -9.2e-07,
        "meta_mean_motion_ddot": 0,
        "tle_line1": "1 64202U 25116A   25344.61457091 -.00000092  00000+0  00000+0 0  9990",
        "tle_line2": "2 64202  55.1043  38.7264 0005302 307.5969  48.0567  2.00558380  4086"
      },
      "geometry": {
        "type": "Point",
        "coordinates": [
          -142.08470521386232,
          1.1702588441423776
        ]
      }
    }
  ]
}